GPS BIIR-2  (PRN 13)    
1 24876U 97035A   16189.04834350  .00000008  00000-0  00000+0 0  9990
2 24876  55.6471 240.7086 0039841 116.0360 244.4562  2.00562662138903
GPS BIIR-3  (PRN 11)    
1 25933U 99055A   16189.47052113 -.00000052  00000-0  00000+0 0  9995
2 25933  51.4017  92.7686 0163603  88.2405 144.0126  2.00563338122739
GPS BIIR-4  (PRN 20)    
1 26360U 00025A   16189.51107817  .00000000  00000-0  10000-3 0  9993
2 26360  53.0794 169.2666 0043486  79.1274 281.3392  2.00555159118413
GPS BIIR-5  (PRN 28)    
1 26407U 00040A   16189.44498913 -.00000090  00000-0  00000+0 0  9999
2 26407  56.6981 358.5833 0199468 267.4612 326.8223  2.00569455117108
GPS BIIR-6  (PRN 14)    
1 26605U 00071A   16189.38769685  .00000006  00000-0  00000+0 0  9999
2 26605  55.2169 238.5577 0090526 248.2128 221.7765  2.00521542114697
GPS BIIR-7  (PRN 18)    
1 26690U 01004A   16189.39536671  .00000022  00000-0  00000+0 0  9996
2 26690  53.0061 172.2368 0174789 252.9083 333.3397  2.00560224113090
GPS BIIR-8  (PRN 16)    
1 27663U 03005A   16189.43514855 -.00000090  00000-0  00000+0 0  9991
2 27663  56.7716 358.3028 0086208  21.3385 322.5772  2.00551097 98467
GPS BIIR-9  (PRN 21)    
1 27704U 03010A   16189.31714043 -.00000028  00000-0  00000+0 0  9992
2 27704  53.6721 112.5504 0236001 258.3066 329.1577  2.00573178 97267
GPS BIIR-10 (PRN 22)    
1 28129U 03058A   16189.24324745  .00000021  00000-0  00000+0 0  9996
2 28129  52.8867 172.2754 0078614 251.9786 107.1374  2.00550140 91956
GPS BIIR-11 (PRN 19)    
1 28190U 04009A   16188.16599480 -.00000065  00000-0  00000+0 0  9990
2 28190  55.8023  59.6405 0105814  45.4845 256.2588  2.00569697 90114
GPS BIIR-12 (PRN 23)    
1 28361U 04023A   16189.47780071  .00000008  00000-0  00000+0 0  9995
2 28361  54.1903 234.0178 0112086 214.6053 227.8677  2.00565883 88224
GPS BIIR-13 (PRN 02)    
1 28474U 04045A   16189.01096468 -.00000029  00000-0  00000+0 0  9998
2 28474  54.0600 111.8945 0160081 239.9603 228.0621  2.00572880 85588
GPS BIIRM-1 (PRN 17)    
1 28874U 05038A   16189.43240291 -.00000073  00000-0  00000+0 0  9995
2 28874  55.9682  56.8016 0112008 250.0428 270.6906  2.00559113 78983
GPS BIIRM-2 (PRN 31)    
1 29486U 06042A   16189.37732596 -.00000059  00000-0  00000+0 0  9992
2 29486  55.6208 296.0708 0082332 335.8925  63.0409  2.00551783 71700
GPS BIIRM-3 (PRN 12)    
1 29601U 06052A   16188.76761128 -.00000091  00000-0  00000+0 0  9993
2 29601  56.7426 357.2521 0059605  42.7595 317.7059  2.00560932 70604
GPS BIIRM-4 (PRN 15)    
1 32260U 07047A   16189.57930052  .00000000  00000-0  10000-3 0  9991
2 32260  53.3187 230.6652 0080841  26.2870 334.2003  2.00569584 64006
GPS BIIRM-5 (PRN 29)    
1 32384U 07062A   16189.13946779 -.00000070  00000-0  00000+0 0  9993
2 32384  56.0245  57.3724 0008954 339.5788 202.1018  2.00578766 62723
GPS BIIRM-6 (PRN 07)    
1 32711U 08012A   16188.99232144 -.00000058  00000-0  00000+0 0  9996
2 32711  55.3453 295.5401 0098264 208.5972 150.8928  2.00567685 60917
GPS BIIRM-8 (PRN 05)    
1 35752U 09043A   16189.25030775  .00000024  00000-0  00000+0 0  9997
2 35752  54.2285 173.5024 0044761  23.5213 186.5960  2.00577822 50496
GPS BIIF-1  (PRN 25)    
1 36585U 10022A   16189.10719001 -.00000092  00000-0  00000+0 0  9997
2 36585  56.0660 354.2946 0054607  43.6439 172.1446  2.00557383 44732
GPS BIIF-2  (PRN 01)    
1 37753U 11036A   16189.43384144 -.00000022  00000-0  00000+0 0  9996
2 37753  55.2758 114.5357 0055578  25.9692 153.8610  2.00567270 36437
GPS BIIF-3  (PRN 24)    
1 38833U 12053A   16189.17134536 -.00000057  00000-0  00000+0 0  9993
2 38833  54.3751 292.7900 0043532  20.7835 339.4277  2.00570876 27507
GPS BIIF-4  (PRN 27)    
1 39166U 13023A   16189.53108821  .00000000  00000-0  10000-3 0  9991
2 39166  55.6789  53.9250 0036885  14.8330 345.3447  2.00565554 23030
GPS BIIF-5  (PRN 30)    
1 39533U 14008A   16189.52693280 -.00000063  00000-0  00000+0 0  9995
2 39533  54.5306 298.0144 0022616 181.9248 178.0952  2.00573724 17400
GPS BIIF-6  (PRN 06)    
1 39741U 14026A   16189.31030843 -.00000023  00000-0  00000+0 0  9999
2 39741  55.2656 114.0579 0005819 278.8867  81.0427  2.00557767 15671
GPS BIIF-7  (PRN 09)    
1 40105U 14045A   16189.39726020  .00000046  00000-0  10000-3 0  9992
2 40105  54.7102 233.7425 0003994 162.4568 197.6400  2.00576749 14129
GPS BIIF-8  (PRN 03)    
1 40294U 14068A   16189.27525825  .00000026  00000-0  00000+0 0  9996
2 40294  54.9701 174.2143 0004255 273.5959  86.3326  2.00563977 12342
GPS BIIF-9  (PRN 26)    
1 40534U 15013A   16188.91963822 -.00000095  00000-0  00000+0 0  9994
2 40534  55.0321 353.7477 0009868 357.1443   2.8501  2.00550861  9404
GPS BIIF-10  (PRN 08)   
1 40730U 15033A   16189.07277345 -.00000074  00000-0  00000+0 0  9997
2 40730  55.2150  53.7705 0018922 296.5390  63.3293  2.00558945  7165
GPS BIIF-11  (PRN 10)   
1 41019U 15062A   16189.12551233  .00000025  00000-0  00000+0 0  9992
2 41019  54.9828 173.9919 0016972 211.5425 148.3327  2.00562364  4984
GPS BIIF-12  (PRN 32)   
1 41328U 16007A   16189.21313796  .00000011  00000-0  00000+0 0  9990
2 41328  54.9727 233.8409 0007143 240.8703 119.1328  2.00569872  3054
